TRANSPORTER-12 OBJECT AZ
1 62656U 25009AZ  26068.71026235  .00016057  00000+0  54903-3 0  9991
2 62656  97.3981 151.9913 0000987  45.3581 314.7740 15.30349724 63792
STARLINK-35724          
1 66279U 25247Q   26068.64845163  .00004667  00000+0  16971-3 0  9998
2 66279  53.1588 191.9012 0001136  87.9340 272.1791 15.30175525 21025
